[{"OBJECT_NAME":"ONEWEB-0517","OBJECT_ID":"2022-138Y","EPOCH":"2026-02-02T05:57:58.520736","MEAN_MOTION":13.19725034,"ECCENTRICITY":0.00019785,"INCLINATION":87.925,"RA_OF_ASC_NODE":331.823,"ARG_OF_PERICENTER":71.7655,"MEAN_ANOMALY":288.3693,"EPHEMERIS_TYPE":0,"CLASSIFICATION_TYPE":"U","NORAD_CAT_ID":54135,"ELEMENT_SET_NO":999,"REV_AT_EPOCH":15903,"BSTAR":-0.00046675253,"MEAN_MOTION_DOT":-1.74e-6,"MEAN_MOTION_DDOT":0},{"OBJECT_NAME":"ONEWEB-0518","OBJECT_ID":"2022-138Z","EPOCH":"2026-02-02T06:25:16.411584","MEAN_MOTION":13.19724392,"ECCENTRICITY":0.00016148,"INCLINATION":87.9242,"RA_OF_ASC_NODE":331.8344,"ARG_OF_PERICENTER":79.167,"MEAN_ANOMALY":280.9645,"EPHEMERIS_TYPE":0,"CLASSIFICATION_TYPE":"U","NORAD_CAT_ID":54136,"ELEMENT_SET_NO":999,"REV_AT_EPOCH":15903,"BSTAR":0.00012804757,"MEAN_MOTION_DOT":6.4e-7,"MEAN_MOTION_DDOT":0},{"OBJECT_NAME":"ONEWEB-0519","OBJECT_ID":"2022-138AA","EPOCH":"2026-02-02T07:01:41.223072","MEAN_MOTION":13.19726708,"ECCENTRICITY":0.00018757,"INCLINATION":87.9256,"RA_OF_ASC_NODE":331.8054,"ARG_OF_PERICENTER":72.8357,"MEAN_ANOMALY":287.2981,"EPHEMERIS_TYPE":0,"CLASSIFICATION_TYPE":"U","NORAD_CAT_ID":54137,"ELEMENT_SET_NO":999,"REV_AT_EPOCH":15904,"BSTAR":7.193066e-5,"MEAN_MOTION_DOT":4.2e-7,"MEAN_MOTION_DDOT":0},{"OBJECT_NAME":"ONEWEB-0520","OBJECT_ID":"2022-138AB","EPOCH":"2026-02-02T06:02:32.420832","MEAN_MOTION":13.19727514,"ECCENTRICITY":0.00015025,"INCLINATION":87.9258,"RA_OF_ASC_NODE":331.8193,"ARG_OF_PERICENTER":77.8905,"MEAN_ANOMALY":282.2396,"EPHEMERIS_TYPE":0,"CLASSIFICATION_TYPE":"U","NORAD_CAT_ID":54138,"ELEMENT_SET_NO":999,"REV_AT_EPOCH":15902,"BSTAR":0.0002897902,"MEAN_MOTION_DOT":1.29e-6,"MEAN_MOTION_DDOT":0},{"OBJECT_NAME":"ONEWEB-0521","OBJECT_ID":"2022-138AC","EPOCH":"2026-02-02T06:50:18.261312","MEAN_MOTION":13.1972722,"ECCENTRICITY":0.00019742,"INCLINATION":87.9257,"RA_OF_ASC_NODE":331.7967,"ARG_OF_PERICENTER":74.5429,"MEAN_ANOMALY":285.5922,"EPHEMERIS_TYPE":0,"CLASSIFICATION_TYPE":"U","NORAD_CAT_ID":54139,"ELEMENT_SET_NO":999,"REV_AT_EPOCH":15897,"BSTAR":5.2930944e-5,"MEAN_MOTION_DOT":3.4e-7,"MEAN_MOTION_DDOT":0},{"OBJECT_NAME":"ONEWEB-0522","OBJECT_ID":"2022-138AD","EPOCH":"2026-02-02T06:20:43.090368","MEAN_MOTION":13.19725037,"ECCENTRICITY":0.00016477,"INCLINATION":87.9255,"RA_OF_ASC_NODE":331.802,"ARG_OF_PERICENTER":76.2766,"MEAN_ANOMALY":283.855,"EPHEMERIS_TYPE":0,"CLASSIFICATION_TYPE":"U","NORAD_CAT_ID":54140,"ELEMENT_SET_NO":999,"REV_AT_EPOCH":15901,"BSTAR":-0.000707921,"MEAN_MOTION_DOT":-2.7e-6,"MEAN_MOTION_DDOT":0},{"OBJECT_NAME":"ONEWEB-0523","OBJECT_ID":"2022-138AE","EPOCH":"2026-02-02T06:13:09.344352","MEAN_MOTION":13.20769738,"ECCENTRICITY":0.00024322,"INCLINATION":87.9223,"RA_OF_ASC_NODE":301.3652,"ARG_OF_PERICENTER":85.0124,"MEAN_ANOMALY":275.1287,"EPHEMERIS_TYPE":0,"CLASSIFICATION_TYPE":"U","NORAD_CAT_ID":54141,"ELEMENT_SET_NO":999,"REV_AT_EPOCH":16149,"BSTAR":7.8551691e-5,"MEAN_MOTION_DOT":4.5e-7,"MEAN_MOTION_DDOT":0},{"OBJECT_NAME":"ONEWEB-0524","OBJECT_ID":"2022-138AF","EPOCH":"2026-02-02T05:57:15.240384","MEAN_MOTION":13.20773668,"ECCENTRICITY":0.00020444,"INCLINATION":87.9221,"RA_OF_ASC_NODE":301.3687,"ARG_OF_PERICENTER":106.8368,"MEAN_ANOMALY":253.299,"EPHEMERIS_TYPE":0,"CLASSIFICATION_TYPE":"U","NORAD_CAT_ID":54142,"ELEMENT_SET_NO":999,"REV_AT_EPOCH":16149,"BSTAR":0.00020470767,"MEAN_MOTION_DOT":9.6e-7,"MEAN_MOTION_DDOT":0},{"OBJECT_NAME":"ONEWEB-0525","OBJECT_ID":"2022-138AG","EPOCH":"2026-02-02T06:48:01.700928","MEAN_MOTION":13.19727322,"ECCENTRICITY":0.00015002,"INCLINATION":87.925,"RA_OF_ASC_NODE":331.8151,"ARG_OF_PERICENTER":77.3211,"MEAN_ANOMALY":282.8089,"EPHEMERIS_TYPE":0,"CLASSIFICATION_TYPE":"U","NORAD_CAT_ID":54143,"ELEMENT_SET_NO":999,"REV_AT_EPOCH":15903,"BSTAR":6.4703702e-5,"MEAN_MOTION_DOT":3.9e-7,"MEAN_MOTION_DDOT":0},{"OBJECT_NAME":"ONEWEB-0526","OBJECT_ID":"2022-138AH","EPOCH":"2026-02-02T05:46:37.012224","MEAN_MOTION":13.19727753,"ECCENTRICITY":0.0001704,"INCLINATION":87.9258,"RA_OF_ASC_NODE":331.8157,"ARG_OF_PERICENTER":80.0777,"MEAN_ANOMALY":280.0548,"EPHEMERIS_TYPE":0,"CLASSIFICATION_TYPE":"U","NORAD_CAT_ID":54144,"ELEMENT_SET_NO":999,"REV_AT_EPOCH":15900,"BSTAR":0.00028941932,"MEAN_MOTION_DOT":1.29e-6,"MEAN_MOTION_DDOT":0},{"OBJECT_NAME":"ONEWEB-0529","OBJECT_ID":"2022-138AJ","EPOCH":"2026-02-02T05:51:10.230624","MEAN_MOTION":13.19727218,"ECCENTRICITY":0.00015383,"INCLINATION":87.9246,"RA_OF_ASC_NODE":331.8368,"ARG_OF_PERICENTER":79.4469,"MEAN_ANOMALY":280.6837,"EPHEMERIS_TYPE":0,"CLASSIFICATION_TYPE":"U","NORAD_CAT_ID":54145,"ELEMENT_SET_NO":999,"REV_AT_EPOCH":15902,"BSTAR":0.00025753817,"MEAN_MOTION_DOT":1.16e-6,"MEAN_MOTION_DDOT":0},{"OBJECT_NAME":"ONEWEB-0531","OBJECT_ID":"2022-138AK","EPOCH":"2026-02-02T05:36:47.475648","MEAN_MOTION":13.20771599,"ECCENTRICITY":0.00024321,"INCLINATION":87.9221,"RA_OF_ASC_NODE":301.3672,"ARG_OF_PERICENTER":92.828,"MEAN_ANOMALY":267.3132,"EPHEMERIS_TYPE":0,"CLASSIFICATION_TYPE":"U","NORAD_CAT_ID":54146,"ELEMENT_SET_NO":999,"REV_AT_EPOCH":16149,"BSTAR":-0.00039693526,"MEAN_MOTION_DOT":-1.48e-6,"MEAN_MOTION_DDOT":0},{"OBJECT_NAME":"ONEWEB-0535","OBJECT_ID":"2022-138AL","EPOCH":"2026-02-02T06:38:54.806208","MEAN_MOTION":13.19725118,"ECCENTRICITY":0.00021712,"INCLINATION":87.9257,"RA_OF_ASC_NODE":331.8028,"ARG_OF_PERICENTER":78.1048,"MEAN_ANOMALY":282.0328,"EPHEMERIS_TYPE":0,"CLASSIFICATION_TYPE":"U","NORAD_CAT_ID":54147,"ELEMENT_SET_NO":999,"REV_AT_EPOCH":15904,"BSTAR":-0.00092191972,"MEAN_MOTION_DOT":-3.56e-6,"MEAN_MOTION_DDOT":0},{"OBJECT_NAME":"ONEWEB-0536","OBJECT_ID":"2022-138AM","EPOCH":"2026-02-02T05:18:36.726624","MEAN_MOTION":13.20769995,"ECCENTRICITY":0.00024564,"INCLINATION":87.9212,"RA_OF_ASC_NODE":301.4078,"ARG_OF_PERICENTER":96.4876,"MEAN_ANOMALY":263.6537,"EPHEMERIS_TYPE":0,"CLASSIFICATION_TYPE":"U","NORAD_CAT_ID":54148,"ELEMENT_SET_NO":999,"REV_AT_EPOCH":16148,"BSTAR":0.00023394969,"MEAN_MOTION_DOT":1.08e-6,"MEAN_MOTION_DDOT":0},{"OBJECT_NAME":"ONEWEB-0527","OBJECT_ID":"2022-166A","EPOCH":"2026-02-02T04:53:47.934528","MEAN_MOTION":13.21826391,"ECCENTRICITY":0.00015233,"INCLINATION":87.9196,"RA_OF_ASC_NODE":270.9262,"ARG_OF_PERICENTER":84.3401,"MEAN_ANOMALY":275.7906,"EPHEMERIS_TYPE":0,"CLASSIFICATION_TYPE":"U","NORAD_CAT_ID":54642,"ELEMENT_SET_NO":999,"REV_AT_EPOCH":15370,"BSTAR":6.4206117e-5,"MEAN_MOTION_DOT":4.0e-7,"MEAN_MOTION_DDOT":0},{"OBJECT_NAME":"ONEWEB-0528","OBJECT_ID":"2022-166B","EPOCH":"2026-02-02T05:03:16.401600","MEAN_MOTION":13.21823928,"ECCENTRICITY":0.00014958,"INCLINATION":87.9197,"RA_OF_ASC_NODE":270.9289,"ARG_OF_PERICENTER":83.2953,"MEAN_ANOMALY":276.8351,"EPHEMERIS_TYPE":0,"CLASSIFICATION_TYPE":"U","NORAD_CAT_ID":54643,"ELEMENT_SET_NO":999,"REV_AT_EPOCH":15371,"BSTAR":7.4786494e-5,"MEAN_MOTION_DOT":4.4e-7,"MEAN_MOTION_DDOT":0}]
