ONEWEB-0517             
1 54135U 22138Y   26033.24859399 -.00000174  00000+0 -46675-3 0  9991
2 54135  87.9250 331.8230 0001978  71.7655 288.3693 13.19725034159039
ONEWEB-0518             
1 54136U 22138Z   26033.26755106  .00000064  00000+0  12805-3 0  9999
2 54136  87.9242 331.8344 0001614  79.1670 280.9645 13.19724392159034
ONEWEB-0519             
1 54137U 22138AA  26033.29283823  .00000042  00000+0  71931-4 0  9997
2 54137  87.9256 331.8054 0001875  72.8357 287.2981 13.19726708159046
ONEWEB-0520             
1 54138U 22138AB  26033.25176413  .00000129  00000+0  28979-3 0  9999
2 54138  87.9258 331.8193 0001502  77.8905 282.2396 13.19727514159023
ONEWEB-0521             
1 54139U 22138AC  26033.28493358  .00000034  00000+0  52931-4 0  9994
2 54139  87.9257 331.7967 0001974  74.5429 285.5922 13.19727220158977
ONEWEB-0522             
1 54140U 22138AD  26033.26438762 -.00000270  00000+0 -70792-3 0  9990
2 54140  87.9255 331.8020 0001647  76.2766 283.8550 13.19725037159016
ONEWEB-0523             
1 54141U 22138AE  26033.25913593  .00000045  00000+0  78552-4 0  9991
2 54141  87.9223 301.3652 0002432  85.0124 275.1287 13.20769738161498
ONEWEB-0524             
1 54142U 22138AF  26033.24809306  .00000096  00000+0  20471-3 0  9999
2 54142  87.9221 301.3687 0002044 106.8368 253.2990 13.20773668161491
ONEWEB-0525             
1 54143U 22138AG  26033.28335302  .00000039  00000+0  64704-4 0  9999
2 54143  87.9250 331.8151 0001500  77.3211 282.8089 13.19727322159031
ONEWEB-0526             
1 54144U 22138AH  26033.24070616  .00000129  00000+0  28942-3 0  9993
2 54144  87.9258 331.8157 0001704  80.0777 280.0548 13.19727753159005
ONEWEB-0529             
1 54145U 22138AJ  26033.24386841  .00000116  00000+0  25754-3 0  9998
2 54145  87.9246 331.8368 0001538  79.4469 280.6837 13.19727218159027
ONEWEB-0531             
1 54146U 22138AK  26033.23388282 -.00000148  00000+0 -39694-3 0  9994
2 54146  87.9221 301.3672 0002432  92.8280 267.3132 13.20771599161492
ONEWEB-0535             
1 54147U 22138AL  26033.27702322 -.00000356  00000+0 -92192-3 0  9997
2 54147  87.9257 331.8028 0002171  78.1048 282.0328 13.19725118159047
ONEWEB-0536             
1 54148U 22138AM  26033.22125841  .00000108  00000+0  23395-3 0  9990
2 54148  87.9212 301.4078 0002456  96.4876 263.6537 13.20769995161486
ONEWEB-0527             
1 54642U 22166A   26033.20402702  .00000040  00000+0  64206-4 0  9994
2 54642  87.9196 270.9262 0001523  84.3401 275.7906 13.21826391153700
ONEWEB-0528             
1 54643U 22166B   26033.21060650  .00000044  00000+0  74786-4 0  9996
2 54643  87.9197 270.9289 0001495  83.2953 276.8351 13.21823928153719
